CCSDS_OMM_VERS = 2.0
CREATION_DATE  = 
ORIGINATOR     = 

OBJECT_NAME    = ALOS (DAICHI)
OBJECT_ID      = 2006-002A
CENTER_NAME    = EARTH
REF_FRAME      = TEME
TIME_SYSTEM    = UTC
MEAN_ELEMENT_THEORY = SGP/SGP4

EPOCH          = 2026-02-10T11:24:46.910016
MEAN_MOTION    = 14.69718637
ECCENTRICITY   = .000196
INCLINATION    = 98.1171
RA_OF_ASC_NODE = 357.5780
ARG_OF_PERICENTER = 63.8207
MEAN_ANOMALY   = 296.3200

EPHEMERIS_TYPE = 0
CLASSIFICATION_TYPE = U
NORAD_CAT_ID   = 28931
ELEMENT_SET_NO = 999
REV_AT_EPOCH   = 6948
BSTAR          = .28225E-3
MEAN_MOTION_DOT = .1632E-4
MEAN_MOTION_DDOT = 0

CCSDS_OMM_VERS = 2.0
CREATION_DATE  = 
ORIGINATOR     = 

OBJECT_NAME    = H-2A R/B
OBJECT_ID      = 2006-002B
CENTER_NAME    = EARTH
REF_FRAME      = TEME
TIME_SYSTEM    = UTC
MEAN_ELEMENT_THEORY = SGP/SGP4

EPOCH          = 2026-02-10T08:26:13.650432
MEAN_MOTION    = 15.15863280
ECCENTRICITY   = .0052715
INCLINATION    = 98.2360
RA_OF_ASC_NODE = 186.0466
ARG_OF_PERICENTER = 335.3277
MEAN_ANOMALY   = 24.5433

EPHEMERIS_TYPE = 0
CLASSIFICATION_TYPE = U
NORAD_CAT_ID   = 28932
ELEMENT_SET_NO = 999
REV_AT_EPOCH   = 9029
BSTAR          = .43981E-3
MEAN_MOTION_DOT = .8638E-4
MEAN_MOTION_DDOT = 0

CCSDS_OMM_VERS = 2.0
CREATION_DATE  = 
ORIGINATOR     = 

OBJECT_NAME    = RESURS-DK 1
OBJECT_ID      = 2006-021A
CENTER_NAME    = EARTH
REF_FRAME      = TEME
TIME_SYSTEM    = UTC
MEAN_ELEMENT_THEORY = SGP/SGP4

EPOCH          = 2026-02-10T03:48:18.700128
MEAN_MOTION    = 15.12584166
ECCENTRICITY   = .00044738
INCLINATION    = 69.9346
RA_OF_ASC_NODE = 308.2307
ARG_OF_PERICENTER = 203.4349
MEAN_ANOMALY   = 156.6614

EPHEMERIS_TYPE = 0
CLASSIFICATION_TYPE = U
NORAD_CAT_ID   = 29228
ELEMENT_SET_NO = 999
REV_AT_EPOCH   = 8336
BSTAR          = .18140509E-3
MEAN_MOTION_DOT = .3067E-4
MEAN_MOTION_DDOT = 0

CCSDS_OMM_VERS = 2.0
CREATION_DATE  = 
ORIGINATOR     = 

OBJECT_NAME    = CZ-4B R/B
OBJECT_ID      = 2006-046C
CENTER_NAME    = EARTH
REF_FRAME      = TEME
TIME_SYSTEM    = UTC
MEAN_ELEMENT_THEORY = SGP/SGP4

EPOCH          = 2026-02-10T02:22:15.106080
MEAN_MOTION    = 15.16604377
ECCENTRICITY   = .00335368
INCLINATION    = 97.5652
RA_OF_ASC_NODE = 86.0798
ARG_OF_PERICENTER = 6.1089
MEAN_ANOMALY   = 354.0546

EPHEMERIS_TYPE = 0
CLASSIFICATION_TYPE = U
NORAD_CAT_ID   = 29507
ELEMENT_SET_NO = 999
REV_AT_EPOCH   = 5586
BSTAR          = .24235169E-3
MEAN_MOTION_DOT = .4732E-4
MEAN_MOTION_DDOT = 0

CCSDS_OMM_VERS = 2.0
CREATION_DATE  = 
ORIGINATOR     = 

OBJECT_NAME    = CZ-2C R/B
OBJECT_ID      = 2007-010B
CENTER_NAME    = EARTH
REF_FRAME      = TEME
TIME_SYSTEM    = UTC
MEAN_ELEMENT_THEORY = SGP/SGP4

EPOCH          = 2026-02-10T07:41:52.100160
MEAN_MOTION    = 14.20236594
ECCENTRICITY   = .0059203
INCLINATION    = 98.3970
RA_OF_ASC_NODE = 155.9738
ARG_OF_PERICENTER = 14.9329
MEAN_ANOMALY   = 345.3580

EPHEMERIS_TYPE = 0
CLASSIFICATION_TYPE = U
NORAD_CAT_ID   = 31114
ELEMENT_SET_NO = 999
REV_AT_EPOCH   = 97583
BSTAR          = .76235E-4
MEAN_MOTION_DOT = .125E-5
MEAN_MOTION_DDOT = 0

CCSDS_OMM_VERS = 2.0
CREATION_DATE  = 
ORIGINATOR     = 

OBJECT_NAME    = COSMO-SKYMED 1
OBJECT_ID      = 2007-023A
CENTER_NAME    = EARTH
REF_FRAME      = TEME
TIME_SYSTEM    = UTC
MEAN_ELEMENT_THEORY = SGP/SGP4

EPOCH          = 2026-02-10T12:23:28.163616
MEAN_MOTION    = 14.96315811
ECCENTRICITY   = .000085
INCLINATION    = 97.8857
RA_OF_ASC_NODE = 232.3353
ARG_OF_PERICENTER = 84.2414
MEAN_ANOMALY   = 275.8904

EPHEMERIS_TYPE = 0
CLASSIFICATION_TYPE = U
NORAD_CAT_ID   = 31598
ELEMENT_SET_NO = 999
REV_AT_EPOCH   = 1084
BSTAR          = .32439E-3
MEAN_MOTION_DOT = .3609E-4
MEAN_MOTION_DDOT = 0

CCSDS_OMM_VERS = 2.0
CREATION_DATE  = 
ORIGINATOR     = 

OBJECT_NAME    = COSMOS 2428
OBJECT_ID      = 2007-029A
CENTER_NAME    = EARTH
REF_FRAME      = TEME
TIME_SYSTEM    = UTC
MEAN_ELEMENT_THEORY = SGP/SGP4

EPOCH          = 2026-02-10T01:35:15.763488
MEAN_MOTION    = 14.12933801
ECCENTRICITY   = .00074093
INCLINATION    = 70.9396
RA_OF_ASC_NODE = 261.3294
ARG_OF_PERICENTER = 307.4625
MEAN_ANOMALY   = 52.5822

EPHEMERIS_TYPE = 0
CLASSIFICATION_TYPE = U
NORAD_CAT_ID   = 31792
ELEMENT_SET_NO = 999
REV_AT_EPOCH   = 96019
BSTAR          = .19290575E-3
MEAN_MOTION_DOT = .312E-5
MEAN_MOTION_DDOT = 0

CCSDS_OMM_VERS = 2.0
CREATION_DATE  = 
ORIGINATOR     = 

OBJECT_NAME    = SL-16 R/B
OBJECT_ID      = 2007-029B
CENTER_NAME    = EARTH
REF_FRAME      = TEME
TIME_SYSTEM    = UTC
MEAN_ELEMENT_THEORY = SGP/SGP4

EPOCH          = 2026-02-10T00:16:14.503872
MEAN_MOTION    = 14.14833072
ECCENTRICITY   = .00019996
INCLINATION    = 70.9736
RA_OF_ASC_NODE = 230.5649
ARG_OF_PERICENTER = 278.3789
MEAN_ANOMALY   = 248.9040

EPHEMERIS_TYPE = 0
CLASSIFICATION_TYPE = U
NORAD_CAT_ID   = 31793
ELEMENT_SET_NO = 999
REV_AT_EPOCH   = 96145
BSTAR          = .22068246E-3
MEAN_MOTION_DOT = .378E-5
MEAN_MOTION_DDOT = 0

CCSDS_OMM_VERS = 2.0
CREATION_DATE  = 
ORIGINATOR     = 

OBJECT_NAME    = KORONAS-FOTON
OBJECT_ID      = 2009-003A
CENTER_NAME    = EARTH
REF_FRAME      = TEME
TIME_SYSTEM    = UTC
MEAN_ELEMENT_THEORY = SGP/SGP4

EPOCH          = 2026-02-10T04:50:32.947872
MEAN_MOTION    = 15.42590171
ECCENTRICITY   = .000893
INCLINATION    = 82.4313
RA_OF_ASC_NODE = 304.4375
ARG_OF_PERICENTER = 255.3896
MEAN_ANOMALY   = 104.6361

EPHEMERIS_TYPE = 0
CLASSIFICATION_TYPE = U
NORAD_CAT_ID   = 33504
ELEMENT_SET_NO = 999
REV_AT_EPOCH   = 94150
BSTAR          = .26437E-3
MEAN_MOTION_DOT = .11544E-3
MEAN_MOTION_DDOT = 0

CCSDS_OMM_VERS = 2.0
CREATION_DATE  = 
ORIGINATOR     = 

OBJECT_NAME    = CZ-2C R/B
OBJECT_ID      = 2011-030B
CENTER_NAME    = EARTH
REF_FRAME      = TEME
TIME_SYSTEM    = UTC
MEAN_ELEMENT_THEORY = SGP/SGP4

EPOCH          = 2026-02-10T11:08:46.601664
MEAN_MOTION    = 14.81115276
ECCENTRICITY   = .0054229
INCLINATION    = 97.8496
RA_OF_ASC_NODE = 359.2848
ARG_OF_PERICENTER = 79.2009
MEAN_ANOMALY   = 34.6613

EPHEMERIS_TYPE = 0
CLASSIFICATION_TYPE = U
NORAD_CAT_ID   = 37731
ELEMENT_SET_NO = 999
REV_AT_EPOCH   = 78606
BSTAR          = .21941E-3
MEAN_MOTION_DOT = .1694E-4
MEAN_MOTION_DDOT = 0

CCSDS_OMM_VERS = 2.0
CREATION_DATE  = 
ORIGINATOR     = 

OBJECT_NAME    = H-2A R/B
OBJECT_ID      = 2012-025E
CENTER_NAME    = EARTH
REF_FRAME      = TEME
TIME_SYSTEM    = UTC
MEAN_ELEMENT_THEORY = SGP/SGP4

EPOCH          = 2026-02-10T11:43:52.946400
MEAN_MOTION    = 14.94923579
ECCENTRICITY   = .004567
INCLINATION    = 98.4675
RA_OF_ASC_NODE = 6.3744
ARG_OF_PERICENTER = 42.9764
MEAN_ANOMALY   = 317.5007

EPHEMERIS_TYPE = 0
CLASSIFICATION_TYPE = U
NORAD_CAT_ID   = 38341
ELEMENT_SET_NO = 999
REV_AT_EPOCH   = 74415
BSTAR          = .35094E-3
MEAN_MOTION_DOT = .3841E-4
MEAN_MOTION_DDOT = 0

CCSDS_OMM_VERS = 2.0
CREATION_DATE  = 
ORIGINATOR     = 

OBJECT_NAME    = SHIJIAN-16 (SJ-16)
OBJECT_ID      = 2013-057A
CENTER_NAME    = EARTH
REF_FRAME      = TEME
TIME_SYSTEM    = UTC
MEAN_ELEMENT_THEORY = SGP/SGP4

EPOCH          = 2026-02-10T13:03:37.014624
MEAN_MOTION    = 14.92243017
ECCENTRICITY   = .0016735
INCLINATION    = 74.9704
RA_OF_ASC_NODE = 236.4738
ARG_OF_PERICENTER = 180.4595
MEAN_ANOMALY   = 179.6581

EPHEMERIS_TYPE = 0
CLASSIFICATION_TYPE = U
NORAD_CAT_ID   = 39358
ELEMENT_SET_NO = 999
REV_AT_EPOCH   = 66745
BSTAR          = .10889E-3
MEAN_MOTION_DOT = .1084E-4
MEAN_MOTION_DDOT = 0

