ALOS (DAICHI)           
1 28931U 06002A   26041.47554294  .00001632  00000+0  28225-3 0  9997
2 28931  98.1171 357.5780 0001960  63.8207 296.3200 14.69718637 69480
H-2A R/B                
1 28932U 06002B   26041.35154688  .00008638  00000+0  43981-3 0  9997
2 28932  98.2360 186.0466 0052715 335.3277  24.5433 15.15863280 90295
RESURS-DK 1             
1 29228U 06021A   26041.15854977  .00003067  00000+0  18141-3 0  9994
2 29228  69.9346 308.2307 0004473 203.4349 156.6614 15.12584166 83366
CZ-4B R/B               
1 29507U 06046C   26041.09878595  .00004732  00000+0  24235-3 0  9997
2 29507  97.5652  86.0798 0033536   6.1089 354.0546 15.16604377 55862
CZ-2C R/B               
1 31114U 07010B   26041.32074190  .00000125  00000+0  76235-4 0  9991
2 31114  98.3970 155.9738 0059203  14.9329 345.3580 14.20236594975839
COSMO-SKYMED 1          
1 31598U 07023A   26041.51629819  .00003609  00000+0  32439-3 0  9993
2 31598  97.8857 232.3353 0000850  84.2414 275.8904 14.96315811 10846
COSMOS 2428             
1 31792U 07029A   26041.06615467  .00000312  00000+0  19291-3 0  9998
2 31792  70.9396 261.3294 0007409 307.4625  52.5822 14.12933801960193
SL-16 R/B               
1 31793U 07029B   26041.01127898  .00000378  00000+0  22068-3 0  9998
2 31793  70.9736 230.5649 0001999 278.3789 248.9040 14.14833072961453
KORONAS-FOTON           
1 33504U 09003A   26041.20177023  .00011544  00000+0  26437-3 0  9991
2 33504  82.4313 304.4375 0008930 255.3896 104.6361 15.42590171941507
CZ-2C R/B               
1 37731U 11030B   26041.46442826  .00001694  00000+0  21941-3 0  9994
2 37731  97.8496 359.2848 0054229  79.2009  34.6613 14.81115276786060
H-2A R/B                
1 38341U 12025E   26041.48880725  .00003841  00000+0  35094-3 0  9993
2 38341  98.4675   6.3744 0045670  42.9764 317.5007 14.94923579744155
SHIJIAN-16 (SJ-16)      
1 39358U 13057A   26041.54417841  .00001084  00000+0  10889-3 0  9992
2 39358  74.9704 236.4738 0016735 180.4595 179.6581 14.92243017667456
